#dP2024  3 24  0  0  0.00000000      97 __u+U IGS20 FIT  IAC
## 2307      0.00000000   900.00000000 60393 0.0000000000000
+  120   C06C07C08C09C10C11C12C13C14C16C19C20C21C22C23C24C25
+        C26C27C28C29C30C32C33C34C35C36C37C38C39C40C41C42C43
+        C44C45C46E02E03E04E05E07E08E09E10E11E12E13E14E15E18
+        E19E21E24E25E26E27E30E31E33E34E36G01G02G03G04G05G06
+        G07G08G09G10G11G12G13G14G15G16G17G18G19G20G21G22G23
+        G24G25G26G27G28G29G30G31G32J02J03J04R01R02R03R04R05
+        R07R08R09R11R12R13R14R15R16R17R18R19R20R21R22R24R25
+        R26  0  0  0  0  0  0  0  0  0  0  0  0  0  0  0  0
++         7  7  7  7  7  6  6  7  6  7  5  5  5  6  6  5  6
++         5  6  6  5  5  5  6  5  6  6  6  6  6  6  6  5  6
++         5  6  6  4  4  4  4  4  4  4  4  4  4  4  4  4  4
++         4  4  4  4  4  4  4  4  4  4  4  4  3  3  3  3  3
++         3  3  3  3  3  3  3  3  4  3  4  3  4  3  3  3  3
++         3  3  3  3  3  3  3  3  4 11 11 11  8  7  7  7  7
++         6  6  6  6  6  7  7  7  7  7  6  7  7  6  7  7  7
++         7  0  0  0  0  0  0  0  0  0  0  0  0  0  0  0  0
%c M  cc GPS ccc cccc cccc cccc cccc ccccc ccccc ccccc ccccc
%c cc cc ccc ccc cccc cccc cccc cccc ccccc ccccc ccccc ccccc
%f  1.2500000  1.025000000  0.00000000000  0.000000000000000
%f  0.0000000  0.000000000  0.00000000000  0.000000000000000
%i    0    0    0    0      0      0      0      0         0
%i    0    0    0    0      0      0      0      0         0
/* INFORMATION & ANALYSIS CENTER (IAC)            FINAL DATA
/* S/V CLOCKS ARE ALIGNED TO GNSS TIME                      
/* G:C1WC2W R:C1PC2P E:C1XC5X C:C2IC6I J:C1CC2S             
/* PCV:IGS20_2290 OL/AL:FES2004  NONE     YN ORB:CoN CLK:CoN
*  2024 03 24  8 30  0.00000000
PC06  -1172.062671  28366.460809 -31036.181082    295.010824
PC07 -17704.474691  31149.267017  22147.737630   -886.155296
PC08  -9620.822006  40585.196027   6863.417408     35.526375
PC09   5025.686281  31183.289738 -27160.006298   -664.209171
PC10  -8940.464909  31242.163851  26932.194606     31.704609
PC11 -26274.383923  -9087.487164   2458.613021    475.914831
PC12 -15904.101573 -17199.996519 -15134.193170   -219.164798
PC13  -4354.632880  42074.743638   -638.028446    426.908976
PC14 -20346.495156     59.430726  19088.040923    478.398530
PC16  -5409.998557  25391.517257 -32866.530646   -415.082552
PC19  23487.420333  -8637.184612 -12351.747396   -917.530349
PC20  15320.461293   6853.955554 -22285.382418   -288.408351
PC21   3040.682071 -19687.063479  19575.612553   -961.552368
PC22  18700.040459 -20061.598281   5253.071353    -63.681318
PC23  -9773.815650  19130.437522 -17815.086134   -775.812334
PC24 -13698.606562 -19841.290888 -14049.439104    950.634865
PC25 -16471.156246    305.738270 -22536.139304    357.250361
PC26  -3741.519947 -27543.305593   2240.831311   -267.227128
PC27   6984.974344  17839.828709  20263.497148    289.087302
PC28 -11346.435838  12387.732969  22286.452061    220.647264
PC29  25950.145213   1138.374240 -10200.631513    258.765461
PC30  22959.393846  13658.499810   8010.492194    -43.361926
PC32  -2945.045330  19717.309565 -19498.164113   -588.584454
PC33 -23410.678662   8638.088719  12477.603427   -961.653942
PC34 -23849.845222 -12949.078689  -6571.969497    396.922625
PC35  11056.406094 -12809.856646 -22199.491511    403.763075
PC36  16521.639970    472.620694  22502.363307     28.692879
PC37   2880.975853  27648.575500  -2594.652525   -948.346727
PC38 -13224.775178  37547.350141  14138.159901    144.661831
PC39 -10308.610056  22030.754619 -34361.268952     -7.695617
PC40 -24879.192147  25246.847779  22611.588574    -62.209837
PC41 -19129.413491  19819.014063  -4351.374431   -911.181182
PC42 -14024.034490  -8347.938703  22678.919880   -445.544347
PC43 -26249.421462  -1832.925609   9318.315000     65.321909
PC44  -7467.894251 -17697.546016 -20271.802624    422.652658
PC45   9694.120758 -19130.231333  17836.749817    -77.122731
PC46  13871.306030  19259.262456  14698.013398   -134.197979
PE02 -16526.755243  23263.295904  -7910.586127    113.746406
PE03 -20649.891607  13616.075507 -16246.851345   -102.439837
PE04   -633.473691 -16981.953710  24248.722125   -356.995840
PE05 -29484.620459   2343.079341   1118.707394   4731.988457
PE07  20833.685581  10567.894952 -18174.179638   -110.657844
PE08   -256.047899  16898.313412 -24294.862868   -243.843324
PE09 -20702.461029 -10534.057741  18345.149501   -381.730872
PE10 -14534.079502 -25313.984883  -4933.299000   -611.706596
PE11 -19838.942502 -21264.047763   5570.646644   3135.342263
PE12  -7533.544399 -25261.112502 -13494.356739   -962.529393
PE13  19609.606013  21599.327988  -4956.145832    -20.674857
PE14  -8653.282066  14913.871548  16823.645335     75.279593
PE15   7118.245303  25085.417196  13999.181241    -93.016562
PE18  17116.393072 -18025.312707 -20097.999523    470.937771
PE19  22431.658700 -12504.785490  14732.526650   -374.409384
PE21  19216.641697  -6432.190720  21566.871211   -585.568214
PE24 -10646.959846 -15247.608851 -23045.063843   -668.446616
PE25 -19162.505020   5999.012339 -21752.650059      2.494191
PE26  20351.959880   4854.878340 -20929.669248    405.465029
PE27  10843.130427  14900.798708  23160.301488   -306.593368
PE30  -4037.413321  27228.736664  10886.331137   -126.681584
PE31   3811.292390 -27177.802045 -11085.483758    -19.035516
PE33   9756.110710 -13356.152687 -24545.626796      9.452116
PE34  -9320.851506  13839.315962  24445.599685   -101.716746
PE36 -20438.041851  -5570.231851  20684.777991   -203.572206
PG01 -18423.100271  -4938.664413  18287.531009    175.680178
PG02 -21284.144238 -11913.322401  11320.850926   -465.164280
PG03 -15171.636570  -1059.591481  21614.787131    270.472137
PG04 -25634.959905  -2361.414197   6832.672253    322.331659
PG05   9110.494208  15095.562143 -20007.124686   -166.545871
PG06   1283.989933  20402.172435  16958.434061    354.192998
PG07 -14587.168101   5617.578981 -21024.205758    -91.425143
PG08 -21119.794377  -7223.396484 -14815.256090     76.685989
PG09 -24631.342923   8064.223304  -6019.123490    135.467044
PG10  10467.902993 -24208.000331   -509.148060     -2.245977
PG11  10836.890060  23435.266118   6358.715738   -616.112545
PG12  15045.646901   3167.805787  21364.855060   -490.091876
PG13  12944.984205  13335.108613 -19263.608184    636.826671
PG14 -13416.929627  22384.957773  -4304.134574    358.505677
PG15  21583.307549   5449.388856 -15127.785360    140.950495
PG16  -4005.886847 -19289.804712 -17929.902126   -333.795140
PG17 -16070.651198  12927.696241  17242.383738    712.463405
PG18  13495.979625  -6684.959652 -21875.125233   -581.558130
PG19  -6170.877785  14608.112140  21057.106441    458.337737
PG20   2718.310383  24031.045608 -11095.299215    382.780494
PG21 -20923.867653 -16117.065073   6500.043157    130.117778
PG22  -9541.642628  24639.986335   4382.530647     11.159924
PG23  15603.161350 -17452.152843 -12339.044921    184.292431
PG24  21162.412511  13955.946306   8184.065500   -450.542817
PG25  17164.586601  -8404.525565  17989.612447    492.099264
PG26   2422.808805 -25215.881326  -7477.048381    175.721540
PG27  -9898.098319 -13432.430615 -21039.512997    -14.018063
PG28    640.502265 -19298.416061  18222.102500   -176.086745
PG29  25929.533884  -4273.332818  -4278.184050   -603.969005
PG30  -6334.119876  16025.729453 -20008.994545   -415.371997
PG31  -7381.881525 -22883.726676  10615.878582   -228.011080
PG32  12224.507273 -14749.148122  18518.200247   -616.728443
PJ02 -26870.683917  31578.975376  -3227.878004     -3.249579
PJ03 -26519.433245  22043.293026  29355.757951     -0.160820
PJ04 -33297.049420  25527.457685    227.092506     50.614809
PR01   -805.480176 -11997.604924  22505.516504     80.527688
PR02 -16349.864672  -1474.378038  19598.108211    -22.634920
PR03 -22911.421224   9910.772710   5438.895935     96.940754
PR04 -16948.583202  15293.797658 -11356.648187    228.934069
PR05  -1884.337183  12657.546047 -22051.567171    128.896911
PR07  22838.581442 -10391.681523  -4405.390774     78.646094
PR08  16532.714041 -15530.441330  11703.405067    -74.850350
PR09  10056.967641  12537.179985  19794.828577    177.081177
PR11   6332.648616 -20798.181025  13363.048451     30.224216
PR12  -2546.989744 -24735.325024  -5636.006311     38.171152
PR13  -8982.980453 -15070.731970 -18532.397695    -45.600881
PR14 -10807.420188   6119.110857 -22270.378488     26.261165
PR15  -5931.993501  21699.672965 -12005.839874     81.094881
PR16   2528.524735  24779.838343   5422.224924     24.262567
PR17 -19067.950410  -2576.290943  16734.005580     71.749215
PR18  -6367.852300   8391.709688  23245.191402    133.704748
PR19   7740.784135  15237.846493  18931.733007   -270.517050
PR20  21134.923471  14232.610635    356.898194   -110.268828
PR21  18998.397360   2747.027643 -16810.425533    -87.052173
PR22   5706.021035  -9274.796610 -23042.165020    114.314551
PR24 -21881.195452 -13100.287485    257.567215    -49.012927
PR25  19003.839956   3059.683868 -16742.561638    -24.685523
PR26  17229.537922 -15526.197664  10672.357970    -28.634055
EOF
